     2              NAVIGATION DATA                         RINEX VERSION / TYPE
CCRINEXN V1.6.0 UX  CDDIS               04-NOV-16 15:33     PGM / RUN BY / DATE 
IGS BROADCAST EPHEMERIS FILE                                COMMENT             
    0.1211D-07 -0.7451D-08 -0.1192D-06  0.5960D-07          ION ALPHA           
    0.9626D+05 -0.3277D+05 -0.1966D+06  0.1966D+06          ION BETA            
   -0.372529029846D-08-0.115463194561D-13   589824     1921 DELTA-UTC: A0,A1,T,W
    17                                                      LEAP SECONDS        
                                                            END OF HEADER       
27 16 11  3  2  0  0.0 0.160302966833D-03 0.511590769747D-11 0.000000000000D+00
    0.300000000000D+02-0.893125000000D+02 0.388837628762D-08-0.168746598345D+01
   -0.454857945442D-05 0.388812390156D-02 0.103786587715D-04 0.515366044044D+04
    0.352800000000D+06-0.298023223877D-07 0.183694528506D+00-0.558793544769D-07
    0.973284312078D+00 0.186625000000D+03 0.323403936535D+00-0.768246266602D-08
   -0.482162955395D-10 0.100000000000D+01 0.192100000000D+04 0.000000000000D+00
    0.200000000000D+01 0.000000000000D+00 0.139698386192D-08 0.300000000000D+02
    0.345600000000D+06 0.000000000000D+00 0.000000000000D+00 0.000000000000D+00
28 16 11  3  2  0  0.0 0.564069487154D-03 0.295585778076D-11 0.000000000000D+00
    0.180000000000D+02-0.515937500000D+02 0.428839291449D-08-0.860587234341D+00
   -0.252388417721D-05 0.200547885615D-01 0.325590372086D-05 0.515363049126D+04
    0.352800000000D+06-0.312924385071D-06-0.779965424005D+00 0.162050127983D-06
    0.989224551276D+00 0.334968750000D+03-0.160521920028D+01-0.847785313661D-08
   -0.227509476683D-09 0.000000000000D+00 0.192100000000D+04 0.000000000000D+00
    0.200000000000D+01 0.000000000000D+00-0.111758708954D-07 0.180000000000D+02
    0.348120000000D+06 0.400000000000D+01 0.000000000000D+00 0.000000000000D+00
29 16 11  3  2  0  0.0 0.645095948130D-03-0.159161572810D-11 0.000000000000D+00
    0.770000000000D+02-0.745312500000D+02 0.383944564261D-08 0.375034284449D+00
   -0.397861003876D-05 0.487643526867D-03 0.996142625809D-05 0.515373131561D+04
    0.352800000000D+06 0.149011611938D-07 0.244373171032D+00 0.130385160446D-07
    0.979368564963D+00 0.197093750000D+03-0.113238505181D-01-0.766817655319D-08
   -0.271439877989D-10 0.000000000000D+00 0.192100000000D+04 0.000000000000D+00
    0.200000000000D+01 0.000000000000D+00-0.102445483208D-07 0.770000000000D+02
    0.345600000000D+06 0.400000000000D+01 0.000000000000D+00 0.000000000000D+00
30 16 11  3  2  0  0.0 0.156043563038D-03 0.113686837722D-11 0.000000000000D+00
    0.540000000000D+02 0.104781250000D+03 0.491877631535D-08 0.176494629570D+01
    0.552833080292D-05 0.237393297721D-02 0.549852848053D-05 0.515375928879D+04
    0.352800000000D+06 0.707805156708D-07-0.184183726849D+01 0.521540641785D-07
    0.950229018658D+00 0.267968750000D+03-0.312161051218D+01-0.842106505688D-08
    0.237152735506D-09 0.000000000000D+00 0.192100000000D+04 0.000000000000D+00
    0.200000000000D+01 0.000000000000D+00 0.372529029846D-08 0.540000000000D+02
    0.345600000000D+06 0.400000000000D+01 0.000000000000D+00 0.000000000000D+00
31 16 11  3  2  0  0.0 0.238935928792D-03-0.216004991671D-11 0.000000000000D+00
    0.930000000000D+02 0.102906250000D+03 0.444804242168D-08 0.162274815681D+01
    0.553578138351D-05 0.844219326973D-02 0.493973493576D-05 0.515358804131D+04
    0.352800000000D+06 0.894069671631D-07-0.187366435037D+01 0.912696123123D-07
    0.969263070657D+00 0.285406250000D+03-0.363752772243D+00-0.810248035797D-08
    0.917895376884D-10 0.100000000000D+01 0.192100000000D+04 0.000000000000D+00
    0.200000000000D+01 0.000000000000D+00-0.135041773319D-07 0.930000000000D+02
    0.345600000000D+06 0.400000000000D+01 0.000000000000D+00 0.000000000000D+00
32 16 11  3  2  0  0.0-0.181362498552D-03-0.164845914696D-10 0.000000000000D+00
    0.570000000000D+02 0.301250000000D+02 0.439482591928D-08-0.116429607594D+01
    0.162608921528D-05 0.605990178883D-03 0.106953084469D-04 0.515366655350D+04
    0.352800000000D+06 0.149011611938D-07-0.295994858325D+01 0.242143869400D-07
    0.959346659976D+00 0.173625000000D+03-0.246735658943D+01-0.782889753358D-08
   -0.249296098469D-09 0.100000000000D+01 0.192100000000D+04 0.000000000000D+00
    0.200000000000D+01 0.000000000000D+00 0.465661287308D-09 0.570000000000D+02
    0.345600000000D+06 0.400000000000D+01 0.000000000000D+00 0.000000000000D+00
16 16 11  3  3 59 44.0 0.139074400067D-04 0.159161572810D-11 0.000000000000D+00
    0.100000000000D+01-0.573750000000D+02 0.413660087746D-08 0.274947560555D+00
   -0.292807817459D-05 0.874055980239D-02 0.283122062683D-05 0.515359069443D+04
    0.359984000000D+06 0.651925802231D-07-0.784808544506D+00 0.596046447754D-07
    0.990474448002D+00 0.336812500000D+03 0.383261052544D+00-0.817248327387D-08
   -0.289654922433D-09 0.100000000000D+01 0.192100000000D+04 0.000000000000D+00
    0.200000000000D+01 0.000000000000D+00-0.102445483208D-07 0.100000000000D+01
    0.353190000000D+06 0.400000000000D+01 0.000000000000D+00 0.000000000000D+00
22 16 11  3  3 59 44.0 0.201029237360D-03-0.106865627458D-10 0.000000000000D+00
    0.420000000000D+02-0.139062500000D+02 0.567059334583D-08-0.120103096417D+01
   -0.510364770889D-06 0.732860306743D-02 0.524707138538D-05 0.515367658424D+04
    0.359984000000D+06 0.130385160446D-07 0.224503663780D+01 0.195577740669D-06
    0.922967835761D+00 0.257187500000D+03-0.185183852403D+01-0.866750389347D-08
   -0.153577825704D-09 0.100000000000D+01 0.192100000000D+04 0.000000000000D+00
    0.200000000000D+01 0.000000000000D+00-0.176951289177D-07 0.420000000000D+02
    0.358620000000D+06 0.400000000000D+01 0.000000000000D+00 0.000000000000D+00
26 16 11  3  3 59 44.0-0.495899002999D-03-0.511590769747D-11 0.000000000000D+00
    0.400000000000D+01-0.446875000000D+02 0.484163024476D-08 0.133384037425D+01
   -0.219047069550D-05 0.116592540871D-02 0.208243727684D-05 0.515360546493D+04
    0.359984000000D+06 0.782310962677D-07-0.868234183633D+00-0.689178705216D-07
    0.959908819895D+00 0.335156250000D+03-0.190153485913D+00-0.847821029435D-08
   -0.222866426138D-09 0.100000000000D+01 0.192100000000D+04 0.000000000000D+00
    0.200000000000D+01 0.000000000000D+00 0.745058059692D-08 0.400000000000D+01
    0.353220000000D+06 0.400000000000D+01 0.000000000000D+00 0.000000000000D+00
31 16 11  3  3 59 44.0 0.238919630647D-03-0.216004991671D-11 0.000000000000D+00
    0.500000000000D+01 0.982812500000D+02 0.442054127615D-08 0.267050453150D+01
    0.522844493389D-05 0.844138825778D-02 0.561587512493D-05 0.515359075165D+04
    0.359984000000D+06-0.108033418655D-06-0.187372327232D+01 0.195577740669D-06
    0.969264355100D+00 0.276156250000D+03-0.363610608790D+00-0.803426323074D-08
    0.250367571672D-09 0.100000000000D+01 0.192100000000D+04 0.000000000000D+00
    0.200000000000D+01 0.000000000000D+00-0.135041773319D-07 0.500000000000D+01
    0.359100000000D+06 0.400000000000D+01 0.000000000000D+00 0.000000000000D+00
 1 16 11  3  4  0  0.0 0.392533838749D-04 0.125055521494D-11 0.000000000000D+00
    0.600000000000D+01 0.204375000000D+02 0.436161025000D-08-0.281648197296D+01
    0.105984508991D-05 0.596448720899D-02 0.848621129990D-05 0.515369812393D+04
    0.360000000000D+06-0.186264514923D-07 0.124106205115D+01-0.372529029846D-08
    0.965296061073D+00 0.217812500000D+03 0.564700018845D+00-0.782925469131D-08
    0.521450291926D-09 0.100000000000D+01 0.192100000000D+04 0.000000000000D+00
    0.200000000000D+01 0.000000000000D+00 0.512227416039D-08 0.600000000000D+01
    0.352800000000D+06 0.400000000000D+01 0.000000000000D+00 0.000000000000D+00
 2 16 11  3  4  0  0.0 0.531004741788D-03-0.545696821064D-11 0.000000000000D+00
    0.820000000000D+02 0.753125000000D+01 0.475126933801D-08-0.234346791775D+01
    0.450760126114D-06 0.160833362024D-01 0.849552452564D-05 0.515366442108D+04
    0.360000000000D+06 0.193715095520D-06 0.119207770364D+01-0.102445483208D-06
    0.944166089267D+00 0.205718750000D+03-0.207215008955D+01-0.779853912617D-08
    0.586095841816D-09 0.000000000000D+00 0.192100000000D+04 0.000000000000D+00
    0.280000000000D+01 0.000000000000D+00-0.200234353542D-07 0.820000000000D+02
    0.352800000000D+06 0.400000000000D+01 0.000000000000D+00 0.000000000000D+00
 3 16 11  3  4  0  0.0-0.961488112807D-04-0.216004991671D-11 0.000000000000D+00
    0.700000000000D+02-0.155625000000D+02 0.477734185261D-08 0.211486691711D+01
   -0.771135091782D-06 0.326272216625D-03 0.577419996262D-05 0.515358221626D+04
    0.360000000000D+06 0.111758708954D-07 0.228331197878D+01 0.931322574616D-08
    0.959313965220D+00 0.265687500000D+03 0.812656457032D+00-0.815569686037D-08
   -0.186436337250D-09 0.100000000000D+01 0.192100000000D+04 0.000000000000D+00
    0.200000000000D+01 0.000000000000D+00 0.186264514923D-08 0.700000000000D+02
    0.352800000000D+06 0.400000000000D+01 0.000000000000D+00 0.000000000000D+00
 4 16 11  3  4  0  0.0 0.132941640913D-04 0.306954461848D-11 0.000000000000D+00
    0.840000000000D+02 0.363125000000D+02 0.428696428356D-08 0.751040413174D+00
    0.177323818207D-05 0.838587398175D-02 0.110082328319D-04 0.515359633446D+04
    0.360000000000D+06-0.130385160446D-07-0.284064328803D+01-0.201165676117D-06
    0.966551590033D+00 0.171718750000D+03-0.977890276004D+00-0.791532970525D-08
   -0.244295890190D-09 0.000000000000D+00 0.192100000000D+04 0.000000000000D+00
    0.570000000000D+01 0.630000000000D+02-0.419095158577D-08 0.840000000000D+02
    0.352800000000D+06 0.400000000000D+01 0.000000000000D+00 0.000000000000D+00
